{"type": "FeatureCollection", "features": [ {"type": "Feature", "properties": {"norad_id": 37331, "name": "COSMOS 2251 DEB", "group": "cosmos-2251-debris", "lat": 2.3395252499239936, "lon": -113.17486533588202, "alt_km": 780.9481660046313, "timestamp": "2025-12-12T22:42:12.943246+00:00", "meta": {"OBJECT_NAME": "COSMOS 2251 DEB", "OBJECT_ID": "1993-036BKX", "EPOCH": "2025-12-11T12:25:22.057824", "MEAN_MOTION": 14.35017786, "ECCENTRICITY": 0.00551462, "INCLINATION": 74.0753, "RA_OF_ASC_NODE": 70.1043, "ARG_OF_PERICENTER": 84.7821, "MEAN_ANOMALY": 275.9621, "EPHEMERIS_TYPE": 0, "CLASSIFICATION_TYPE": "U", "NORAD_CAT_ID": 37331, "ELEMENT_SET_NO": 999, "REV_AT_EPOCH": 84742, "BSTAR": 0.00087412391, "MEAN_MOTION_DOT": 2.509e-05, "MEAN_MOTION_DDOT": 0}, "tle": {"line1": "1 37331U 93036BKX 25345.51761641  .00002509  00000+0  87412-3 0  9998", "line2": "2 37331  74.0753  70.1043 0055146  84.7821 275.9621 14.35017786847420"}}, "geometry": {"type": "Point", "coordinates": [-113.17486533588202, 2.3395252499239936]}}, {"type": "Feature", "properties": {"norad_id": 37336, "name": "COSMOS 2251 DEB", "group": "cosmos-2251-debris", "lat": 22.983245210670876, "lon": 143.86764934255615, "alt_km": 787.8024227981432, "timestamp": "2025-12-12T22:42:12.943256+00:00", "meta": {"OBJECT_NAME": "COSMOS 2251 DEB", "OBJECT_ID": "1993-036BLC", "EPOCH": "2025-12-09T16:53:45.179232", "MEAN_MOTION": 14.32756828, "ECCENTRICITY": 0.00287573, "INCLINATION": 74.0407, "RA_OF_ASC_NODE": 336.7551, "ARG_OF_PERICENTER": 55.3677, "MEAN_ANOMALY": 305.0179, "EPHEMERIS_TYPE": 0, "CLASSIFICATION_TYPE": "U", "NORAD_CAT_ID": 37336, "ELEMENT_SET_NO": 999, "REV_AT_EPOCH": 65076, "BSTAR": 0.00013225409, "MEAN_MOTION_DOT": 3.36e-06, "MEAN_MOTION_DDOT": 0}, "tle": {"line1": "1 37336U 93036BLC 25343.70399513  .00000336  00000+0  13225-3 0  9994", "line2": "2 37336  74.0407 336.7551 0028757  55.3677 305.0179 14.32756828650763"}}, "geometry": {"type": "Point", "coordinates": [143.86764934255615, 22.983245210670876]}}, {"type": "Feature", "properties": {"norad_id": 37340, "name": "COSMOS 2251 DEB", "group": "cosmos-2251-debris", "lat": 18.053693914424585, "lon": -77.86657732344892, "alt_km": 756.119833090368, "timestamp": "2025-12-12T22:42:12.943266+00:00", "meta": {"OBJECT_NAME": "COSMOS 2251 DEB", "OBJECT_ID": "1993-036BLG", "EPOCH": "2025-12-11T13:11:54.734784", "MEAN_MOTION": 14.36921007, "ECCENTRICITY": 0.00177096, "INCLINATION": 74.0254, "RA_OF_ASC_NODE": 279.3432, "ARG_OF_PERICENTER": 14.6108, "MEAN_ANOMALY": 345.5553, "EPHEMERIS_TYPE": 0, "CLASSIFICATION_TYPE": "U", "NORAD_CAT_ID": 37340, "ELEMENT_SET_NO": 999, "REV_AT_EPOCH": 84050, "BSTAR": 0.00032873326, "MEAN_MOTION_DOT": 9.48e-06, "MEAN_MOTION_DDOT": 0}, "tle": {"line1": "1 37340U 93036BLG 25345.54993906  .00000948  00000+0  32873-3 0  9998", "line2": "2 37340  74.0254 279.3432 0017709  14.6108 345.5553 14.36921007840505"}}, "geometry": {"type": "Point", "coordinates": [-77.86657732344892, 18.053693914424585]}}, {"type": "Feature", "properties": {"norad_id": 37483, "name": "COSMOS 2251 DEB", "group": "cosmos-2251-debris", "lat": 40.83329473211756, "lon": -51.43141559975728, "alt_km": 798.9606790003681, "timestamp": "2025-12-12T22:42:12.943276+00:00", "meta": {"OBJECT_NAME": "COSMOS 2251 DEB", "OBJECT_ID": "1993-036BLL", "EPOCH": "2025-12-09T17:33:52.143264", "MEAN_MOTION": 14.43549902, "ECCENTRICITY": 0.00929617, "INCLINATION": 73.9727, "RA_OF_ASC_NODE": 148.9468, "ARG_OF_PERICENTER": 356.1236, "MEAN_ANOMALY": 3.9188, "EPHEMERIS_TYPE": 0, "CLASSIFICATION_TYPE": "U", "NORAD_CAT_ID": 37483, "ELEMENT_SET_NO": 999, "REV_AT_EPOCH": 65236, "BSTAR": 0.0003462404, "MEAN_MOTION_DOT": 1.207e-05, "MEAN_MOTION_DDOT": 0}, "tle": {"line1": "1 37483U 93036BLL 25343.73185351  .00001207  00000+0  34624-3 0  9997", "line2": "2 37483  73.9727 148.9468 0092961 356.1236   3.9188 14.43549902652367"}}, "geometry": {"type": "Point", "coordinates": [-51.43141559975728, 40.83329473211756]}}, {"type": "Feature", "properties": {"norad_id": 37484, "name": "COSMOS 2251 DEB", "group": "cosmos-2251-debris", "lat": 23.07738748343013, "lon": -144.83917776105432, "alt_km": 774.0792462670088, "timestamp": "2025-12-12T22:42:12.943285+00:00", "meta": {"OBJECT_NAME": "COSMOS 2251 DEB", "OBJECT_ID": "1993-036BLM", "EPOCH": "2025-12-08T23:58:05.079360", "MEAN_MOTION": 14.41757676, "ECCENTRICITY": 0.0040001, "INCLINATION": 73.8236, "RA_OF_ASC_NODE": 215.4631, "ARG_OF_PERICENTER": 250.9229, "MEAN_ANOMALY": 173.1342, "EPHEMERIS_TYPE": 0, "CLASSIFICATION_TYPE": "U", "NORAD_CAT_ID": 37484, "ELEMENT_SET_NO": 999, "REV_AT_EPOCH": 65325, "BSTAR": 0.00081064, "MEAN_MOTION_DOT": 2.644e-05, "MEAN_MOTION_DDOT": 0}, "tle": {"line1": "1 37484U 93036BLM 25342.99866990  .00002644  00000+0  81064-3 0  9996", "line2": "2 37484  73.8236 215.4631 0040001 250.9229 173.1342 14.41757676653253"}}, "geometry": {"type": "Point", "coordinates": [-144.83917776105432, 23.07738748343013]}}, {"type": "Feature", "properties": {"norad_id": 37486, "name": "COSMOS 2251 DEB", "group": "cosmos-2251-debris", "lat": -70.5667506968639, "lon": -9.690794797267372, "alt_km": 831.037178520538, "timestamp": "2025-12-12T22:42:12.943295+00:00", "meta": {"OBJECT_NAME": "COSMOS 2251 DEB", "OBJECT_ID": "1993-036BLP", "EPOCH": "2025-12-12T01:37:42.055104", "MEAN_MOTION": 14.13312304, "ECCENTRICITY": 0.02295182, "INCLINATION": 73.691, "RA_OF_ASC_NODE": 115.8133, "ARG_OF_PERICENTER": 344.0125, "MEAN_ANOMALY": 131.6797, "EPHEMERIS_TYPE": 0, "CLASSIFICATION_TYPE": "U", "NORAD_CAT_ID": 37486, "ELEMENT_SET_NO": 999, "REV_AT_EPOCH": 63360, "BSTAR": 0.0029312521, "MEAN_MOTION_DOT": 7.046e-05, "MEAN_MOTION_DDOT": 0}, "tle": {"line1": "1 37486U 93036BLP 25346.06784786  .00007046  00000+0  29313-2 0  9991", "line2": "2 37486  73.6910 115.8133 0229518 344.0125 131.6797 14.13312304633608"}}, "geometry": {"type": "Point", "coordinates": [-9.690794797267372, -70.5667506968639]}}, {"type": "Feature", "properties": {"norad_id": 37487, "name": "COSMOS 2251 DEB", "group": "cosmos-2251-debris", "lat": 42.816570010760294, "lon": -152.80205448927939, "alt_km": 604.9244378390158, "timestamp": "2025-12-12T22:42:12.943305+00:00", "meta": {"OBJECT_NAME": "COSMOS 2251 DEB", "OBJECT_ID": "1993-036BLQ", "EPOCH": "2025-12-12T06:17:24.389376", "MEAN_MOTION": 14.80982589, "ECCENTRICITY": 0.00255931, "INCLINATION": 73.9026, "RA_OF_ASC_NODE": 193.0379, "ARG_OF_PERICENTER": 31.2136, "MEAN_ANOMALY": 329.0553, "EPHEMERIS_TYPE": 0, "CLASSIFICATION_TYPE": "U", "NORAD_CAT_ID": 37487, "ELEMENT_SET_NO": 999, "REV_AT_EPOCH": 81238, "BSTAR": 0.0042593386, "MEAN_MOTION_DOT": 0.00033302, "MEAN_MOTION_DDOT": 0}, "tle": {"line1": "1 37487U 93036BLQ 25346.26208784  .00033302  00000+0  42593-2 0  9992", "line2": "2 37487  73.9026 193.0379 0025593  31.2136 329.0553 14.80982589812383"}}, "geometry": {"type": "Point", "coordinates": [-152.80205448927939, 42.816570010760294]}}, {"type": "Feature", "properties": {"norad_id": 37491, "name": "COSMOS 2251 DEB", "group": "cosmos-2251-debris", "lat": 73.53113146808495, "lon": -8.674886959569198, "alt_km": 1206.8442939146253, "timestamp": "2025-12-12T22:42:12.943315+00:00", "meta": {"OBJECT_NAME": "COSMOS 2251 DEB", "OBJECT_ID": "1993-036BLU", "EPOCH": "2025-12-11T13:05:52.435392", "MEAN_MOTION": 13.75285056, "ECCENTRICITY": 0.03174282, "INCLINATION": 73.9058, "RA_OF_ASC_NODE": 276.0936, "ARG_OF_PERICENTER": 269.3893, "MEAN_ANOMALY": 87.0852, "EPHEMERIS_TYPE": 0, "CLASSIFICATION_TYPE": "U", "NORAD_CAT_ID": 37491, "ELEMENT_SET_NO": 999, "REV_AT_EPOCH": 55730, "BSTAR": 0.0017999134, "MEAN_MOTION_DOT": 2.468e-05, "MEAN_MOTION_DDOT": 0}, "tle": {"line1": "1 37491U 93036BLU 25345.54574578  .00002468  00000+0  17999-2 0  9995", "line2": "2 37491  73.9058 276.0936 0317428 269.3893  87.0852 13.75285056557308"}}, "geometry": {"type": "Point", "coordinates": [-8.674886959569198, 73.53113146808495]}}, {"type": "Feature", "properties": {"norad_id": 37498, "name": "COSMOS 2251 DEB", "group": "cosmos-2251-debris", "lat": -12.053492411037901, "lon": 6.999340337743437, "alt_km": 709.076825042368, "timestamp": "2025-12-12T22:42:12.943325+00:00", "meta": {"OBJECT_NAME": "COSMOS 2251 DEB", "OBJECT_ID": "1993-036BMB", "EPOCH": "2025-12-10T07:06:15.238080", "MEAN_MOTION": 14.54745919, "ECCENTRICITY": 0.0012071, "INCLINATION": 74.0358, "RA_OF_ASC_NODE": 188.5072, "ARG_OF_PERICENTER": 251.507, "MEAN_ANOMALY": 108.4781, "EPHEMERIS_TYPE": 0, "CLASSIFICATION_TYPE": "U", "NORAD_CAT_ID": 37498, "ELEMENT_SET_NO": 999, "REV_AT_EPOCH": 65319, "BSTAR": 0.0008921, "MEAN_MOTION_DOT": 3.798e-05, "MEAN_MOTION_DDOT": 0}, "tle": {"line1": "1 37498U 93036BMB 25344.29600970  .00003798  00000+0  89210-3 0  9992", "line2": "2 37498  74.0358 188.5072 0012071 251.5070 108.4781 14.54745919653194"}}, "geometry": {"type": "Point", "coordinates": [6.999340337743437, -12.053492411037901]}}, {"type": "Feature", "properties": {"norad_id": 37499, "name": "COSMOS 2251 DEB", "group": "cosmos-2251-debris", "lat": 28.42875294732258, "lon": -29.271884678885275, "alt_km": 756.598494223329, "timestamp": "2025-12-12T22:42:12.943335+00:00", "meta": {"OBJECT_NAME": "COSMOS 2251 DEB", "OBJECT_ID": "1993-036BMC", "EPOCH": "2025-12-10T05:17:01.570848", "MEAN_MOTION": 14.34338479, "ECCENTRICITY": 0.0026827, "INCLINATION": 74.0377, "RA_OF_ASC_NODE": 326.8027, "ARG_OF_PERICENTER": 43.5901, "MEAN_ANOMALY": 316.7364, "EPHEMERIS_TYPE": 0, "CLASSIFICATION_TYPE": "U", "NORAD_CAT_ID": 37499, "ELEMENT_SET_NO": 999, "REV_AT_EPOCH": 85113, "BSTAR": 0.00027087, "MEAN_MOTION_DOT": 7.38e-06, "MEAN_MOTION_DDOT": 0}, "tle": {"line1": "1 37499U 93036BMC 25344.22015707  .00000738  00000+0  27087-3 0  9999", "line2": "2 37499  74.0377 326.8027 0026827  43.5901 316.7364 14.34338479851131"}}, "geometry": {"type": "Point", "coordinates": [-29.271884678885275, 28.42875294732258]}}]}